KUIPER-00071            
1 64818U 25151C   25222.83334491 -.00175549  00000+0 -64650-2 0  9994
2 64818  51.8807 164.5315 0003542 216.0009 341.3456 15.28038112  3904
KUIPER-00072            
1 64819U 25151D   25221.22098488 -.00053336  00000+0 -15276-2 0  9999
2 64819  51.8768 172.1556 0004413 286.2852  73.7649 15.35383942  3672
KUIPER-00073            
1 64820U 25151E   25222.83334491 -.00505706  00000+0 -18319-1 0  9999
2 64820  51.8807 164.5687 0005567 235.6374 325.7585 15.30015291  5097
KUIPER-00074            
1 64821U 25151F   25222.32464706  .00029842  00000+0  85446-3 0  9994
2 64821  51.8781 166.8036 0004610 233.3547 126.7016 15.35676671  3846
KUIPER-00075            
1 64822U 25151G   25222.45345498  .00422782  00000+0  11150-1 0  9994
2 64822  51.8791 166.1754 0004048 231.0722 128.9903 15.36243257  3865
KUIPER-00076            
1 64823U 25151H   25222.45670026  .00030004  00000+0  86280-3 0  9993
2 64823  51.8777 166.1885 0004680 235.6350 124.4194 15.35539090  3869
KUIPER-00077            
1 64824U 25151J   25222.26384407  .00034073  00000+0  97894-3 0  9991
2 64824  51.8792 167.1540 0005449 242.5789 117.4643 15.35499196  3833
KUIPER-00078            
1 64825U 25151K   25222.39348129  .00022999  00000+0  66469-3 0  9995
2 64825  51.8784 166.5181 0005419 244.9815 115.0609 15.35528649  3856
